CCSDS_OMM_VERS = 2.0
CREATION_DATE  = 
ORIGINATOR     = 

OBJECT_NAME    = DELTA 2 R/B(1)
OBJECT_ID      = 1990-008B
CENTER_NAME    = EARTH
REF_FRAME      = TEME
TIME_SYSTEM    = UTC
MEAN_ELEMENT_THEORY = SGP/SGP4

EPOCH          = 2026-03-02T10:37:30.180288
MEAN_MOTION    = 15.54850817
ECCENTRICITY   = .00869822
INCLINATION    = 35.6028
RA_OF_ASC_NODE = 222.3764
ARG_OF_PERICENTER = 191.5547
MEAN_ANOMALY   = 168.3190

EPHEMERIS_TYPE = 0
CLASSIFICATION_TYPE = U
NORAD_CAT_ID   = 20453
ELEMENT_SET_NO = 999
REV_AT_EPOCH   = 92500
BSTAR          = .9052081E-3
MEAN_MOTION_DOT = .74557E-3
MEAN_MOTION_DDOT = 0

CCSDS_OMM_VERS = 2.0
CREATION_DATE  = 
ORIGINATOR     = 

OBJECT_NAME    = COSMOS 2058
OBJECT_ID      = 1990-010A
CENTER_NAME    = EARTH
REF_FRAME      = TEME
TIME_SYSTEM    = UTC
MEAN_ELEMENT_THEORY = SGP/SGP4

EPOCH          = 2026-03-02T10:20:53.045664
MEAN_MOTION    = 15.11242251
ECCENTRICITY   = .00099013
INCLINATION    = 82.4664
RA_OF_ASC_NODE = 54.5789
ARG_OF_PERICENTER = 7.4003
MEAN_ANOMALY   = 352.7371

EPHEMERIS_TYPE = 0
CLASSIFICATION_TYPE = U
NORAD_CAT_ID   = 20465
ELEMENT_SET_NO = 999
REV_AT_EPOCH   = 94114
BSTAR          = .29680016E-3
MEAN_MOTION_DOT = .5022E-4
MEAN_MOTION_DDOT = 0

CCSDS_OMM_VERS = 2.0
CREATION_DATE  = 
ORIGINATOR     = 

OBJECT_NAME    = SL-14 R/B
OBJECT_ID      = 1990-010B
CENTER_NAME    = EARTH
REF_FRAME      = TEME
TIME_SYSTEM    = UTC
MEAN_ELEMENT_THEORY = SGP/SGP4

EPOCH          = 2026-03-02T14:31:11.460864
MEAN_MOTION    = 14.83561694
ECCENTRICITY   = .00189822
INCLINATION    = 82.4992
RA_OF_ASC_NODE = 274.0453
ARG_OF_PERICENTER = 327.0794
MEAN_ANOMALY   = 32.9237

EPHEMERIS_TYPE = 0
CLASSIFICATION_TYPE = U
NORAD_CAT_ID   = 20466
ELEMENT_SET_NO = 999
REV_AT_EPOCH   = 92743
BSTAR          = .56597676E-4
MEAN_MOTION_DOT = .491E-5
MEAN_MOTION_DDOT = 0

CCSDS_OMM_VERS = 2.0
CREATION_DATE  = 
ORIGINATOR     = 

OBJECT_NAME    = SL-14 R/B
OBJECT_ID      = 1990-018B
CENTER_NAME    = EARTH
REF_FRAME      = TEME
TIME_SYSTEM    = UTC
MEAN_ELEMENT_THEORY = SGP/SGP4

EPOCH          = 2026-03-02T13:09:50.787072
MEAN_MOTION    = 14.82135482
ECCENTRICITY   = .00175781
INCLINATION    = 82.5190
RA_OF_ASC_NODE = 229.7650
ARG_OF_PERICENTER = 113.6977
MEAN_ANOMALY   = 246.6084

EPHEMERIS_TYPE = 0
CLASSIFICATION_TYPE = U
NORAD_CAT_ID   = 20511
ELEMENT_SET_NO = 999
REV_AT_EPOCH   = 92152
BSTAR          = .77763215E-4
MEAN_MOTION_DOT = .644E-5
MEAN_MOTION_DDOT = 0

CCSDS_OMM_VERS = 2.0
CREATION_DATE  = 
ORIGINATOR     = 

OBJECT_NAME    = HST
OBJECT_ID      = 1990-037B
CENTER_NAME    = EARTH
REF_FRAME      = TEME
TIME_SYSTEM    = UTC
MEAN_ELEMENT_THEORY = SGP/SGP4

EPOCH          = 2026-03-02T08:57:46.083456
MEAN_MOTION    = 15.29345912
ECCENTRICITY   = .00016383
INCLINATION    = 28.4700
RA_OF_ASC_NODE = 89.9045
ARG_OF_PERICENTER = 52.0942
MEAN_ANOMALY   = 307.9801

EPHEMERIS_TYPE = 0
CLASSIFICATION_TYPE = U
NORAD_CAT_ID   = 20580
ELEMENT_SET_NO = 999
REV_AT_EPOCH   = 77219
BSTAR          = .3034347E-3
MEAN_MOTION_DOT = .9122E-4
MEAN_MOTION_DDOT = 0

CCSDS_OMM_VERS = 2.0
CREATION_DATE  = 
ORIGINATOR     = 

OBJECT_NAME    = SL-16 R/B
OBJECT_ID      = 1990-046B
CENTER_NAME    = EARTH
REF_FRAME      = TEME
TIME_SYSTEM    = UTC
MEAN_ELEMENT_THEORY = SGP/SGP4

EPOCH          = 2026-03-02T15:04:20.521056
MEAN_MOTION    = 14.15014843
ECCENTRICITY   = .00161041
INCLINATION    = 71.0004
RA_OF_ASC_NODE = 312.7455
ARG_OF_PERICENTER = 309.1529
MEAN_ANOMALY   = 50.8161

EPHEMERIS_TYPE = 0
CLASSIFICATION_TYPE = U
NORAD_CAT_ID   = 20625
ELEMENT_SET_NO = 999
REV_AT_EPOCH   = 84739
BSTAR          = -.57596129E-4
MEAN_MOTION_DOT = -.159E-5
MEAN_MOTION_DDOT = 0

CCSDS_OMM_VERS = 2.0
CREATION_DATE  = 
ORIGINATOR     = 

OBJECT_NAME    = COSMOS 2084
OBJECT_ID      = 1990-055A
CENTER_NAME    = EARTH
REF_FRAME      = TEME
TIME_SYSTEM    = UTC
MEAN_ELEMENT_THEORY = SGP/SGP4

EPOCH          = 2026-03-02T13:10:40.335744
MEAN_MOTION    = 15.05596984
ECCENTRICITY   = .0018195
INCLINATION    = 62.7923
RA_OF_ASC_NODE = 359.9298
ARG_OF_PERICENTER = 188.3931
MEAN_ANOMALY   = 171.6868

EPHEMERIS_TYPE = 0
CLASSIFICATION_TYPE = U
NORAD_CAT_ID   = 20663
ELEMENT_SET_NO = 999
REV_AT_EPOCH   = 93524
BSTAR          = .25122766E-3
MEAN_MOTION_DOT = .3451E-4
MEAN_MOTION_DDOT = 0

CCSDS_OMM_VERS = 2.0
CREATION_DATE  = 
ORIGINATOR     = 

OBJECT_NAME    = SL-6 R/B(2)
OBJECT_ID      = 1990-055D
CENTER_NAME    = EARTH
REF_FRAME      = TEME
TIME_SYSTEM    = UTC
MEAN_ELEMENT_THEORY = SGP/SGP4

EPOCH          = 2026-03-02T14:07:25.010688
MEAN_MOTION    = 15.03554100
ECCENTRICITY   = .00236473
INCLINATION    = 62.7819
RA_OF_ASC_NODE = 278.0002
ARG_OF_PERICENTER = 345.2774
MEAN_ANOMALY   = 14.7634

EPHEMERIS_TYPE = 0
CLASSIFICATION_TYPE = U
NORAD_CAT_ID   = 20666
ELEMENT_SET_NO = 999
REV_AT_EPOCH   = 93712
BSTAR          = .18741984E-3
MEAN_MOTION_DOT = .2385E-4
MEAN_MOTION_DDOT = 0

CCSDS_OMM_VERS = 2.0
CREATION_DATE  = 
ORIGINATOR     = 

OBJECT_NAME    = SL-8 R/B
OBJECT_ID      = 1990-078B
CENTER_NAME    = EARTH
REF_FRAME      = TEME
TIME_SYSTEM    = UTC
MEAN_ELEMENT_THEORY = SGP/SGP4

EPOCH          = 2026-03-02T14:04:40.638144
MEAN_MOTION    = 14.88781381
ECCENTRICITY   = .0363985
INCLINATION    = 82.8991
RA_OF_ASC_NODE = 257.6993
ARG_OF_PERICENTER = 37.8564
MEAN_ANOMALY   = 324.7656

EPHEMERIS_TYPE = 0
CLASSIFICATION_TYPE = U
NORAD_CAT_ID   = 20775
ELEMENT_SET_NO = 999
REV_AT_EPOCH   = 80824
BSTAR          = .48265879E-3
MEAN_MOTION_DOT = .16433E-3
MEAN_MOTION_DDOT = 0

CCSDS_OMM_VERS = 2.0
CREATION_DATE  = 
ORIGINATOR     = 

OBJECT_NAME    = SL-8 R/B
OBJECT_ID      = 1991-006B
CENTER_NAME    = EARTH
REF_FRAME      = TEME
TIME_SYSTEM    = UTC
MEAN_ELEMENT_THEORY = SGP/SGP4

EPOCH          = 2026-03-02T15:54:29.299968
MEAN_MOTION    = 13.77493263
ECCENTRICITY   = .00234438
INCLINATION    = 82.9463
RA_OF_ASC_NODE = 175.2693
ARG_OF_PERICENTER = 57.2991
MEAN_ANOMALY   = 61.4331

EPHEMERIS_TYPE = 0
CLASSIFICATION_TYPE = U
NORAD_CAT_ID   = 21088
ELEMENT_SET_NO = 999
REV_AT_EPOCH   = 76310
BSTAR          = .35079032E-4
MEAN_MOTION_DOT = .5E-6
MEAN_MOTION_DDOT = 0

CCSDS_OMM_VERS = 2.0
CREATION_DATE  = 
ORIGINATOR     = 

OBJECT_NAME    = OKEAN-3
OBJECT_ID      = 1991-039A
CENTER_NAME    = EARTH
REF_FRAME      = TEME
TIME_SYSTEM    = UTC
MEAN_ELEMENT_THEORY = SGP/SGP4

EPOCH          = 2026-03-02T11:56:10.804992
MEAN_MOTION    = 15.04743077
ECCENTRICITY   = .00143791
INCLINATION    = 82.5201
RA_OF_ASC_NODE = 343.8095
ARG_OF_PERICENTER = 3.9174
MEAN_ANOMALY   = 356.2162

EPHEMERIS_TYPE = 0
CLASSIFICATION_TYPE = U
NORAD_CAT_ID   = 21397
ELEMENT_SET_NO = 999
REV_AT_EPOCH   = 86395
BSTAR          = .27970544E-3
MEAN_MOTION_DOT = .3976E-4
MEAN_MOTION_DDOT = 0

CCSDS_OMM_VERS = 2.0
CREATION_DATE  = 
ORIGINATOR     = 

OBJECT_NAME    = COSMOS 2151
OBJECT_ID      = 1991-042A
CENTER_NAME    = EARTH
REF_FRAME      = TEME
TIME_SYSTEM    = UTC
MEAN_ELEMENT_THEORY = SGP/SGP4

EPOCH          = 2026-03-02T14:42:14.886720
MEAN_MOTION    = 15.00071831
ECCENTRICITY   = .00141432
INCLINATION    = 82.4931
RA_OF_ASC_NODE = 90.5046
ARG_OF_PERICENTER = 84.6998
MEAN_ANOMALY   = 275.5839

EPHEMERIS_TYPE = 0
CLASSIFICATION_TYPE = U
NORAD_CAT_ID   = 21422
ELEMENT_SET_NO = 999
REV_AT_EPOCH   = 86213
BSTAR          = .17366098E-3
MEAN_MOTION_DOT = .2194E-4
MEAN_MOTION_DDOT = 0

