DELTA 2 R/B(1)          
1 20453U 90008B   26061.44271042  .00074557  00000+0  90521-3 0  9997
2 20453  35.6028 222.3764 0086982 191.5547 168.3190 15.54850817925009
COSMOS 2058             
1 20465U 90010A   26061.43116951  .00005022  00000+0  29680-3 0  9998
2 20465  82.4664  54.5789 0009901   7.4003 352.7371 15.11242251941141
SL-14 R/B               
1 20466U 90010B   26061.60499376  .00000491  00000+0  56598-4 0  9997
2 20466  82.4992 274.0453 0018982 327.0794  32.9237 14.83561694927437
SL-14 R/B               
1 20511U 90018B   26061.54850448  .00000644  00000+0  77763-4 0  9997
2 20511  82.5190 229.7650 0017578 113.6977 246.6084 14.82135482921526
HST                     
1 20580U 90037B   26061.37345004  .00009122  00000+0  30343-3 0  9994
2 20580  28.4700  89.9045 0001638  52.0942 307.9801 15.29345912772198
SL-16 R/B               
1 20625U 90046B   26061.62801529 -.00000159  00000+0 -57596-4 0  9994
2 20625  71.0004 312.7455 0016104 309.1529  50.8161 14.15014843847390
COSMOS 2084             
1 20663U 90055A   26061.54907796  .00003451  00000+0  25123-3 0  9996
2 20663  62.7923 359.9298 0018195 188.3931 171.6868 15.05596984935242
SL-6 R/B(2)             
1 20666U 90055D   26061.58848392  .00002385  00000+0  18742-3 0  9993
2 20666  62.7819 278.0002 0023647 345.2774  14.7634 15.03554100937129
SL-8 R/B                
1 20775U 90078B   26061.58658146  .00016433  00000+0  48266-3 0  9998
2 20775  82.8991 257.6993 0363985  37.8564 324.7656 14.88781381808242
SL-8 R/B                
1 21088U 91006B   26061.66283912  .00000050  00000+0  35079-4 0  9999
2 21088  82.9463 175.2693 0023443  57.2991  61.4331 13.77493263763105
OKEAN-3                 
1 21397U 91039A   26061.49734728  .00003976  00000+0  27971-3 0  9996
2 21397  82.5201 343.8095 0014379   3.9174 356.2162 15.04743077863956
COSMOS 2151             
1 21422U 91042A   26061.61267230  .00002194  00000+0  17366-3 0  9990
2 21422  82.4931  90.5046 0014143  84.6998 275.5839 15.00071831862136
